TEVEL2-9                
1 63237U 25052AD  26068.70229538  .00018694  00000+0  67240-3 0  9992
2 63237  97.4057 324.3929 0007990 124.2475 235.9522 15.28633834 54816
STARLINK-36471          
1 67324U 26002V   26068.11900643  .00028792  00000+0  10515-2 0  9999
2 67324  43.0021 328.3142 0001393 277.6642  82.4051 15.27585850 10992
